ONEWEB-0020             
1 45133U 20008C   24049.49215516  .00000680  00000+0  19112-2 0  9997
2 45133  87.8935 205.0496 0001344  97.0085 263.1195 13.10375826197847
ONEWEB-0021             
1 45134U 20008D   24048.97226083  .00000267  00000+0  72926-3 0  9995
2 45134  87.8934 205.1624 0001559  98.3115 261.8189 13.10368986198171
ONEWEB-0022             
1 45135U 20008E   24048.91907665 -.00000624  00000+0 -18238-2 0  9996
2 45135  87.8936 205.1909 0001233  92.3191 267.8078 13.10397064196997
ONEWEB-0023             
1 45136U 20008F   24049.44339001  .00000077  00000+0  18472-3 0  9990
2 45136  87.8930 205.0606 0001596 117.0325 243.0965 13.10368470197543
ONEWEB-0024             
1 45137U 20008G   24048.95602436  .00000649  00000+0  18221-2 0  9997
2 45137  87.8926 205.1570 0001606  94.4731 265.6580 13.10372899197645
ONEWEB-0025             
1 45138U 20008H   24048.97387163  .00000171  00000+0  45430-3 0  9990
2 45138  87.8921 205.1531 0001783 102.4356 257.6971 13.10369392197972
ONEWEB-0026             
1 45139U 20008J   24049.44045270 -.00114899  00000+0 -32963+0 0  9992
2 45139  87.9040 189.9718 0002369 109.6037 250.5346 13.11132993200618
ONEWEB-0028             
1 45140U 20008K   24048.93811783 -.00000102  00000+0 -32432-3 0  9993
2 45140  87.9004 190.1177 0002231 108.6202 251.5168 13.11414895197188
